NORAD_CAT_ID,OBJECT_NAME,OBJECT_TYPE,EPOCH,MEAN_MOTION,ECCENTRICITY,INCLINATION,RA_OF_ASC_NODE,ARG_OF_PERICENTER,MEAN_ANOMALY,BSTAR,MEAN_MOTION_DOT,MEAN_MOTION_DDOT,TLE_LINE0,TLE_LINE1,TLE_LINE2,SEMIMAJOR_AXIS,PERIOD,APOGEE,PERIGEE,DECAYED
53395.0,STARLINK-4534,PAYLOAD,2023-05-03 09:46:41,15.08836725,0.0001468,53.2161,118.6128,79.8812,280.2346,3.9267e-05,3.37e-06,0.0,0 STARLINK-4534,1 53395U 22097H   23123.40741987  .00000337  00000-0  39267-4 0  9990,2 53395  53.2161 118.6128 0001468  79.8812 280.2346 15.08836725 41315,6917.89,95.438,540.771,538.74,0.0
53395.0,STARLINK-4534,PAYLOAD,2023-05-04 09:37:28,15.08840291,0.000148,53.2163,114.153,82.0123,278.1037,3.0538e-05,1.98e-06,0.0,0 STARLINK-4534,1 53395U 22097H   23124.40101882  .00000198  00000-0  30538-4 0  9992,2 53395  53.2163 114.1530 0001480  82.0123 278.1037 15.08840291 40977,6917.879,95.438,540.768,538.721,0.0
53395.0,STARLINK-4534,PAYLOAD,2023-05-04 23:55:56,15.08833506,0.0001455,53.2163,111.4765,81.7438,278.3719,3.4343e-05,2.59e-06,0.0,0 STARLINK-4534,1 53395U 22097H   23124.99718464  .00000259  00000-0  34343-4 0  9992,2 53395  53.2163 111.4765 0001455  81.7438 278.3719 15.08833506 41065,6917.9,95.438,540.772,538.759,0.0
53395.0,STARLINK-4534,PAYLOAD,2023-05-05 15:49:48,15.08836207,0.000138,53.2162,108.5028,83.9016,276.2133,3.0418e-05,1.96e-06,0.0,0 STARLINK-4534,1 53395U 22097H   23125.65958439  .00000196  00000-0  30418-4 0  9993,2 53395  53.2162 108.5028 0001380  83.9016 276.2133 15.08836207 41659,6917.892,95.438,540.712,538.802,0.0
53395.0,STARLINK-4534,PAYLOAD,2023-05-06 06:08:16,15.08850372,0.0001345,53.2165,105.8266,87.8446,272.27,-8.1262e-05,-1.581e-05,0.0,0 STARLINK-4534,1 53395U 22097H   23126.25574091 -.00001581  00000-0 -81262-4 0  9992,2 53395  53.2165 105.8266 0001345  87.8446 272.2700 15.08850372 41258,6917.849,95.437,540.644,538.783,0.0
53395.0,STARLINK-4534,PAYLOAD,2023-05-06 07:43:39,15.08841377,0.0001397,53.2165,105.5292,86.1704,273.9447,6.5286e-05,7.51e-06,0.0,0 STARLINK-4534,1 53395U 22097H   23126.32198277  .00000751  00000-0  65286-4 0  9992,2 53395  53.2165 105.5292 0001397  86.1704 273.9447 15.08841377 41756,6917.876,95.437,540.708,538.775,0.0
53395.0,STARLINK-4534,PAYLOAD,2023-05-07 05:59:02,15.08846687,0.0001348,53.2168,101.3663,86.5745,273.5401,9.9628e-05,1.298e-05,0.0,0 STARLINK-4534,1 53395U 22097H   23127.24933843  .00001298  00000-0  99628-4 0  9994,2 53395  53.2168 101.3663 0001348  86.5745 273.5401 15.08846687 41890,6917.86,95.437,540.657,538.792,0.0
53395.0,STARLINK-4534,PAYLOAD,2023-05-07 15:31:22,15.08838823,0.000121,53.217,99.582,82.9134,277.1996,4.3491e-05,4.04e-06,0.0,0 STARLINK-4534,1 53395U 22097H   23127.64678454  .00000404  00000-0  43491-4 0  9997,2 53395  53.2170  99.5820 0001210  82.9134 277.1996 15.08838823 41461,6917.884,95.438,540.586,538.912,0.0
53395.0,STARLINK-4534,PAYLOAD,2023-05-08 15:22:09,15.08837468,0.0001312,53.217,95.1209,93.5738,266.5404,-2.6454e-06,-3.3e-06,0.0,0 STARLINK-4534,1 53395U 22097H   23128.64038908 -.00000330  00000-0 -26454-5 0  9993,2 53395  53.2170  95.1209 0001312  93.5738 266.5404 15.08837468 42107,6917.888,95.438,540.661,538.846,0.0
53395.0,STARLINK-4534,PAYLOAD,2023-05-09 04:05:13,15.0884817,0.0001315,53.217,92.7408,97.3797,262.7344,5.6577e-05,6.13e-06,0.0,0 STARLINK-4534,1 53395U 22097H   23129.17030010  .00000613  00000-0  56577-4 0  9998,2 53395  53.2170  92.7408 0001315  97.3797 262.7344 15.08848170 41697,6917.855,95.437,540.63,538.811,0.0
53395.0,STARLINK-4534,PAYLOAD,2023-05-10 02:20:38,15.08834132,0.0001075,53.2167,88.5793,90.124,269.9875,0.0001247,1.697e-05,0.0,0 STARLINK-4534,1 53395U 22097H   23130.09766877  .00001697  00000-0  12470-3 0  9994,2 53395  53.2167  88.5793 0001075  90.1240 269.9875 15.08834132 42322,6917.898,95.438,540.507,539.02,0.0
53395.0,STARLINK-4534,PAYLOAD,2023-05-11 02:11:25,15.088444,0.0001295,53.2173,84.1186,88.759,271.355,4.7354e-05,4.66e-06,0.0,0 STARLINK-4534,1 53395U 22097H   23131.09126524  .00000466  00000-0  47354-4 0  9997,2 53395  53.2173  84.1186 0001295  88.7590 271.3550 15.08844400 41989,6917.867,95.437,540.628,538.836,0.0
53395.0,STARLINK-4534,PAYLOAD,2023-05-11 03:46:48,15.08845792,0.0001403,53.218,83.8218,98.6549,261.4602,7.4317e-05,8.95e-06,0.0,0 STARLINK-4534,1 53395U 22097H   23131.15750309  .00000895  00000-0  74317-4 0  9993,2 53395  53.2180  83.8218 0001403  98.6549 261.4602 15.08845792 42483,6917.863,95.437,540.698,538.757,0.0
53395.0,STARLINK-4534,PAYLOAD,2023-05-12 03:37:38,15.08817522,0.0001408,53.2175,79.3558,101.2126,258.9024,-0.00010918,-2.024e-05,0.0,0 STARLINK-4534,1 53395U 22097H   23132.15113577 -.00002024  00000-0 -10918-3 0  9998,2 53395  53.2175  79.3558 0001408 101.2126 258.9024 15.08817522 42143,6917.949,95.439,540.788,538.84,0.0
53395.0,STARLINK-4534,PAYLOAD,2023-05-12 11:34:51,15.08617073,0.0001774,53.2179,77.8777,92.483,267.6365,-0.0016998,-0.00027075,0.0,0 STARLINK-4534,1 53395U 22097H   23132.48253854 -.00027075  00000-0 -16998-2 0  9993,2 53395  53.2179  77.8777 0001774  92.4830 267.6365 15.08617073 42191,6918.562,95.452,541.654,539.2,0.0
53395.0,STARLINK-4534,PAYLOAD,2023-05-13 03:29:14,15.08358937,0.000134,53.2176,74.9054,84.1087,276.0058,-0.0034994,-0.00054833,0.0,0 STARLINK-4534,1 53395U 22097H   23133.14530303 -.00054833  00000-0 -34994-2 0  9992,2 53395  53.2176  74.9054 0001340  84.1087 276.0058 15.08358937 42290,6919.351,95.468,542.143,540.289,0.0
53395.0,STARLINK-4534,PAYLOAD,2023-05-13 08:15:30,15.08335706,0.0001685,53.2179,74.0151,58.4053,301.7103,-0.0034956,-0.00054741,0.0,0 STARLINK-4534,1 53395U 22097H   23133.34409842 -.00054741  00000-0 -34956-2 0  9993,2 53395  53.2179  74.0151 0001685  58.4053 301.7103 15.08335706 42321,6919.422,95.469,542.453,540.121,0.0
53395.0,STARLINK-4534,PAYLOAD,2023-05-14 04:55:40,15.08455045,0.0001897,53.2184,70.1494,111.1065,249.013,-0.00040733,-6.696e-05,0.0,0 STARLINK-4534,1 53395U 22097H   23134.20532838 -.00006696  00000-0 -40733-3 0  9998,2 53395  53.2184  70.1494 0001897 111.1065 249.0130 15.08455045 42456,6919.057,95.462,542.235,539.61,0.0
53395.0,STARLINK-4534,PAYLOAD,2023-05-14 11:17:05,15.08625956,0.0001548,53.2183,68.9609,94.2711,265.8458,0.0011837,0.00018491,0.0,0 STARLINK-4534,1 53395U 22097H   23134.47020405  .00018491  00000-0  11837-2 0  9995,2 53395  53.2183  68.9609 0001548  94.2711 265.8458 15.08625956 42493,6918.535,95.451,541.471,539.329,0.0
53395.0,STARLINK-4534,PAYLOAD,2023-05-14 19:14:07,15.08522848,0.0001514,53.2185,67.473,93.0846,267.0319,0.0033693,0.00053275,0.0,0 STARLINK-4534,1 53395U 22097H   23134.80148106  .00053275  00000-0  33693-2 0  9994,2 53395  53.2185  67.4730 0001514  93.0846 267.0319 15.08522848 43030,6918.85,95.458,541.762,539.667,0.0
53395.0,STARLINK-4534,PAYLOAD,2023-05-15 01:35:45,15.08519311,0.0001399,53.219,66.2823,76.0686,284.0461,0.0034694,0.00054873,0.0,0 STARLINK-4534,1 53395U 22097H   23135.06650315  .00054873  00000-0  34694-2 0  9990,2 53395  53.2190  66.2823 0001399  76.0686 284.0461 15.08519311 42587,6918.861,95.458,541.694,539.758,0.0
53395.0,STARLINK-4534,PAYLOAD,2023-05-15 06:21:59,15.08526713,0.0001519,53.2189,65.3891,70.7322,289.3834,0.0033598,0.00053128,0.0,0 STARLINK-4534,1 53395U 22097H   23135.26526770  .00053128  00000-0  33598-2 0  9993,2 53395  53.2189  65.3891 0001519  70.7322 289.3834 15.08526713 42612,6918.838,95.457,541.754,539.652,0.0
53395.0,STARLINK-4534,PAYLOAD,2023-05-16 06:12:54,15.0870607,0.0001586,53.2176,60.9318,97.4683,262.6489,0.0019275,0.00030409,0.0,0 STARLINK-4534,1 53395U 22097H   23136.25896529  .00030409  00000-0  19275-2 0  9998,2 53395  53.2176  60.9318 0001586  97.4683 262.6489 15.08706070 42765,6918.29,95.446,541.252,539.058,0.0
53395.0,STARLINK-4534,PAYLOAD,2023-05-16 22:06:45,15.0882959,0.0001434,53.2174,57.9589,90.3923,269.7234,0.00013845,1.916e-05,0.0,0 STARLINK-4534,1 53395U 22097H   23136.92135806  .00001916  00000-0  13845-3 0  9995,2 53395  53.2174  57.9589 0001434  90.3923 269.7234 15.08829590 42860,6917.912,95.438,540.769,538.785,0.0
53395.0,STARLINK-4534,PAYLOAD,2023-05-17 01:17:31,15.08838628,0.0001361,53.2174,57.3642,84.3252,275.7895,6.8536e-05,8.03e-06,0.0,0 STARLINK-4534,1 53395U 22097H   23137.05383248  .00000803  00000-0  68536-4 0  9997,2 53395  53.2174  57.3642 0001361  84.3252 275.7895 15.08838628 42885,6917.885,95.438,540.691,538.808,0.0
53395.0,STARLINK-4534,PAYLOAD,2023-05-17 21:57:32,15.08838716,0.0001493,53.2188,53.4921,115.1234,244.9913,-2.0045e-05,-6.07e-06,0.0,0 STARLINK-4534,1 53395U 22097H   23137.91495637 -.00000607  00000-0 -20045-4 0  9995,2 53395  53.2188  53.4921 0001493 115.1234 244.9913 15.08838716 43503,6917.884,95.438,540.782,538.716,0.0
53395.0,STARLINK-4534,PAYLOAD,2023-05-18 02:43:41,15.08840445,0.0001307,53.2178,52.6085,90.465,269.6492,-5.4013e-06,-3.74e-06,0.0,0 STARLINK-4534,1 53395U 22097H   23138.11367663 -.00000374  00000-0 -54013-5 0  9999,2 53395  53.2178  52.6085 0001307  90.4650 269.6492 15.08840445 43042,6917.879,95.438,540.648,538.84,0.0
53395.0,STARLINK-4534,PAYLOAD,2023-05-18 04:19:04,15.08842377,0.0001312,53.217,52.3092,76.8123,283.3016,1.0727e-05,-1.17e-06,0.0,0 STARLINK-4534,1 53395U 22097H   23138.17991482 -.00000117  00000-0  10727-4 0  9994,2 53395  53.2170  52.3092 0001312  76.8123 283.3016 15.08842377 43544,6917.873,95.437,540.646,538.83,0.0
53395.0,STARLINK-4534,PAYLOAD,2023-05-18 18:37:33,15.08838433,0.00013,53.2179,49.6322,92.9502,267.1639,-4.6397e-05,-1.026e-05,0.0,0 STARLINK-4534,1 53395U 22097H   23138.77607994 -.00001026  00000-0 -46397-4 0  9995,2 53395  53.2179  49.6322 0001300  92.9502 267.1639 15.08838433 43634,6917.885,95.438,540.65,538.851,0.0
53395.0,STARLINK-4534,PAYLOAD,2023-05-19 21:39:06,15.08835826,0.0001241,53.2182,44.5773,93.9607,266.1527,1.2608e-05,-8.7e-07,0.0,0 STARLINK-4534,1 53395U 22097H   23139.90216008 -.00000087  00000-0  12608-4 0  9996,2 53395  53.2182  44.5773 0001241  93.9607 266.1527 15.08835826 43800,6917.893,95.438,540.617,538.9,0.0
